MOLNIYA 2-9             
1 07276U 74026A   23006.99426299  .00000167  00000+0  00000+0 0  9994
2 07276  64.2828 199.2132 6406087 278.6288  18.4513  2.45096335254216
MOLNIYA 2-10            
1 07376U 74056A   23008.25772324  .00000361  00000+0  00000+0 0  9998
2 07376  64.4334  73.3910 6773203 285.0247  13.7346  2.01198100354501
MOLNIYA 1-S             
1 07392U 74060A   23007.88174344  .00000162  00000+0  00000+0 0  9996
2 07392   4.6003 279.7947 0010180 216.4055 331.4233  1.00248879121578
MOLNIYA 1-29            
1 07780U 75036A   23007.55373288  .00000053  00000+0 -13551+0 0  9998
2 07780  63.4160 193.0316 6812321 287.8439  12.7078  2.00586500349716
MOLNIYA 2-14            
1 08195U 75081A   23003.10049035  .00001129  00000+0  00000+0 0  9995
2 08195  63.3939 166.8942 6738463 292.1326  11.9840  2.02086998346927
MOLNIYA 1-32            
1 08601U 76006A   23004.50501927  .00000327  00000+0  00000+0 0  9992
2 08601  63.5432 270.3397 7162154 283.9018  11.7676  2.00089443 56681
MOLNIYA 1-36            
1 09880U 77021A   23007.57851554 -.00001249  00000+0  00000+0 0  9999
2 09880  63.4965 242.3368 7075617 289.5217  10.9221  2.00629990233465
MOLNIYA 3-8             
1 10455U 77105A   23007.85674835 -.00001329  00000+0  11311-2 0  9997
2 10455  63.4323 326.9818 7331251 282.5757  10.9479  2.00534360331249
MOLNIYA 1-40            
1 10925U 78055A   23007.03490430 -.00000938  00000+0  00000+0 0  9996
2 10925  63.5581  19.0311 7271291 280.7367  11.6174  2.00663942326760
MOLNIYA 3-10            
1 11057U 78095A   23007.80568034 -.00000064  00000+0  10597-3 0  9994
2 11057  63.2482 324.3004 5776050 311.8771  11.4808  4.09872503392100
MOLNIYA 3-13            
1 11896U 80063A   23006.31437564 -.00000195  00000+0  00000+0 0  9990
2 11896  62.7645 111.0512 7157208 276.6331  13.6012  2.00623037311164
MOLNIYA 1-49            
1 12156U 81009A   23004.45318307 -.00000204  00000+0  96184-3 0  9990
2 12156  61.6925 134.2202 7335744 265.5110  15.7788  2.05710953225651
MOLNIYA 1-52            
1 13012U 81123A   23005.80145839  .00001624  00000+0  13646-1 0  9993
2 13012  61.6368 249.6494 7199343 257.6600  20.3117  2.00608738300639
MOLNIYA 1-53            
1 13070U 82015A   23007.48077960 -.00000806  00000+0 -33334-1 0  9992
2 13070  62.5463 189.4640 6974564 283.1226  12.9745  2.00406673299350
MOLNIYA 3-20            
1 13875U 83015A   23006.92165551  .00000303  00000+0  37655-3 0  9990
2 13875  62.5901 320.4423 7383532 260.0707  17.5347  2.00865049227798
MOLNIYA 1-56            
1 13890U 83019A   23007.24976437 -.00000457  00000+0  14920-2 0  9990
2 13890  62.8996 345.1299 7446901 265.9056  14.7685  2.00041639290670
MOLNIYA 1-63            
1 15429U 84124A   23006.84320757 -.00000968  00000+0  00000+0 0  9999
2 15429  63.7293 147.9985 6715594 258.1820  26.6512  2.00747781278846
MOLNIYA 3-24            
1 15738U 85040A   23008.14564358 -.00000067  00000+0  12156-2 0  9990
2 15738  63.5806  44.0789 6863515 247.2313  30.0832  2.55630546309130
MOLNIYA 3-27            
1 16393U 85117A   23007.56080453 -.00000165  00000+0  00000+0 0  9998
2 16393  64.2854  54.3384 7053659 247.1581  27.7718  2.12398580278516
MOLNIYA 1-69            
1 17078U 86089A   23008.17086871  .00001027  00000+0  00000+0 0  9993
2 17078  64.0141 166.9420 6705532 256.4325  26.0087  2.00760920264959
MOLNIYA 3-31            
1 17328U 87008A   23007.79690352 -.00000197  00000+0  00000+0 0  9993
2 17328  63.6688 103.6717 7140911 253.2510  23.0583  2.00679624259997
MOLNIYA 1-71            
1 18946U 88017A   23006.78422668 -.00000067  00000+0  00000+0 0  9998
2 18946  63.3614  96.3629 7251138 256.3352  20.3098  2.00573779255139
MOLNIYA 1-75            
1 19807U 89014A   23001.53847152 -.00000203  00000+0  00000+0 0  9992
2 19807  63.9682 263.1476 6787510 265.9957  20.4841  2.00549896247978
MOLNIYA 1-80            
1 21118U 91012A   23007.29267915 -.00000789  00000+0  00000+0 0  9992
2 21118  65.1888 310.9499 6736725 274.9779  17.3456  2.05244700235164
MOLNIYA 3-40            
1 21196U 91022A   23005.79138524 -.00001152  00000+0  00000+0 0  9990
2 21196  65.0720 304.8136 6764514 271.8647  18.2849  2.03017974233793
MOLNIYA 1-81            
1 21426U 91043A   23007.89395628 -.00000128  00000+0  00000+0 0  9994
2 21426  63.9956 318.2107 7065177 265.8788  18.0865  2.00617004231244
MOLNIYA 3-41            
1 21706U 91065A   23006.48248182  .00000041  00000+0  00000+0 0  9998
2 21706  64.0880 143.4946 6929060 254.0195  24.9733  2.04358755231017
MOLNIYA 3-42            
1 22178U 92067A   23007.02988259  .00000203  00000+0  00000+0 0  9992
2 22178  64.6757 194.6430 6419664 263.6913  24.9573  2.20434567 84544
MOLNIYA 1-86            
1 22671U 93035A   23008.42405614  .00000084  00000+0  18766-3 0  9999
2 22671  63.0796 117.6018 4858549  10.4126 356.8296  5.62768950363786
MOLNIYA 1-87            
1 22949U 93079A   23007.13428658 -.00001284  00000+0  00000+0 0  9997
2 22949  64.2088  68.7404 6918510 283.0484  13.3458  2.02875395 79061
MOLNIYA 1-88            
1 23420U 94081A   23007.38327421  .00000085  00000+0  00000+0 0  9996
2 23420  64.2806 150.8617 5797051 279.2284  22.9613  3.34495389120526
MOLNIYA 3-47            
1 23642U 95042A   23001.83432239  .00001144  00000+0  00000+0 0  9995
2 23642  64.3357  50.8738 6958158 283.3676  12.9845  2.01940623201026
MOLNIYA 1-90            
1 24960U 97054A   23008.30918174  .00000130  00000+0  75659-2 0  9999
2 24960  63.7011 116.4293 6097723 297.1727  14.2352  3.18688370214611
MOLNIYA 1-91            
1 25485U 98054A   23008.54489389  .00000133  00000+0  22925-2 0  9991
2 25485  63.1316 118.3516 6773656 291.8402  21.0942  2.36442377183229
MOLNIYA 3-50            
1 25847U 99036A   23007.84810989 -.00000349  00000+0 -27549-2 0  9998
2 25847  63.2999 303.4162 7319990 282.5561  11.1066  2.00646861172213
